HYPERFIELD-1A           
1 60562U 24149CY  26068.76488211  .00008569  00000+0  30052-3 0  9998
2 60562  97.3842 149.5066 0003865 313.7844  46.3076 15.29681349 86836
STARLINK-34215          
1 64252U 25119V   26068.06359209  .00046129  00000+0  16739-2 0  9992
2 64252  43.0039 310.5789 0004075 244.5308 115.5123 15.27603134 44070
