[{"OBJECT_NAME":"HYPERFIELD-1A","OBJECT_ID":"2024-149CY","EPOCH":"2026-03-09T18:21:25.814304","MEAN_MOTION":15.29681349,"ECCENTRICITY":0.00038648,"INCLINATION":97.3842,"RA_OF_ASC_NODE":149.5066,"ARG_OF_PERICENTER":313.7844,"MEAN_ANOMALY":46.3076,"EPHEMERIS_TYPE":0,"CLASSIFICATION_TYPE":"U","NORAD_CAT_ID":60562,"ELEMENT_SET_NO":999,"REV_AT_EPOCH":8683,"BSTAR":0.00030052114,"MEAN_MOTION_DOT":8.569e-5,"MEAN_MOTION_DDOT":0},{"OBJECT_NAME":"STARLINK-34215","OBJECT_ID":"2025-119V","EPOCH":"2026-03-09T01:31:34.356576","MEAN_MOTION":15.27603134,"ECCENTRICITY":0.00040757,"INCLINATION":43.0039,"RA_OF_ASC_NODE":310.5789,"ARG_OF_PERICENTER":244.5308,"MEAN_ANOMALY":115.5123,"EPHEMERIS_TYPE":0,"CLASSIFICATION_TYPE":"U","NORAD_CAT_ID":64252,"ELEMENT_SET_NO":999,"REV_AT_EPOCH":4407,"BSTAR":0.0016739165,"MEAN_MOTION_DOT":0.00046129,"MEAN_MOTION_DDOT":0}]
